[
    {
        "Altitude(m)": 566947.9914543288,
        "Argument of Periapsis(deg)": 0.033114955553567506,
        "Eccentricity": 0.0,
        "Inclination(deg)": 53.0,
        "Latitude(deg)": -41.03654211870299,
        "Longitude(deg)": -134.70399578283997,
        "Mean Anomaly(deg)": 305.0034643378879,
        "RAAN(deg)": 9.950716842640086,
        "Satellite Name": "Starlink Shell 1 59",
        "Satellite Number": 59,
        "Semi-Major Axis(m)": 6931778.249405717,
        "Time(s)": 950
    },
    {
        "Altitude(m)": 566790.4256167935,
        "Argument of Periapsis(deg)": 0.03346353403307874,
        "Eccentricity": 0.0,
        "Inclination(deg)": 53.0,
        "Latitude(deg)": -40.65533660926631,
        "Longitude(deg)": -134.09082081688368,
        "Mean Anomaly(deg)": 305.63029554144464,
        "RAAN(deg)": 9.95019807256261,
        "Satellite Name": "Starlink Shell 1 59",
        "Satellite Number": 59,
        "Semi-Major Axis(m)": 6931778.249405717,
        "Time(s)": 960
    },
    {
        "Altitude(m)": 566631.3748165038,
        "Argument of Periapsis(deg)": 0.03381211251258998,
        "Eccentricity": 0.0,
        "Inclination(deg)": 53.0,
        "Latitude(deg)": -40.270430116035456,
        "Longitude(deg)": -133.48506778439193,
        "Mean Anomaly(deg)": 306.25712674500136,
        "RAAN(deg)": 9.949679302485139,
        "Satellite Name": "Starlink Shell 1 59",
        "Satellite Number": 59,
        "Semi-Major Axis(m)": 6931778.249405717,
        "Time(s)": 970
    },
    {
        "Altitude(m)": 566470.9010434592,
        "Argument of Periapsis(deg)": 0.034160690992101214,
        "Eccentricity": 0.0,
        "Inclination(deg)": 53.0,
        "Latitude(deg)": -39.88191200845847,
        "Longitude(deg)": -132.8866221663835,
        "Mean Anomaly(deg)": 306.883957948558,
        "RAAN(deg)": 9.949160532407664,
        "Satellite Name": "Starlink Shell 1 59",
        "Satellite Number": 59,
        "Semi-Major Axis(m)": 6931778.249405717,
        "Time(s)": 980
    },
    {
        "Altitude(m)": 566309.0667761815,
        "Argument of Periapsis(deg)": 0.034509269471612446,
        "Eccentricity": 0.0,
        "Inclination(deg)": 53.0,
        "Latitude(deg)": -39.489869837958494,
        "Longitude(deg)": -132.29536765233976,
        "Mean Anomaly(deg)": 307.5107891521148,
        "RAAN(deg)": 9.948641762330192,
        "Satellite Name": "Starlink Shell 1 59",
        "Satellite Number": 59,
        "Semi-Major Axis(m)": 6931778.249405717,
        "Time(s)": 990
    }
]